start=new Date('2023-03-12T00:00:00.000Z').valueOf();
sats=[{"SITE":"AFETR","CENTER_NAME":"EARTH","REV_AT_EPOCH":"16478","CLASSIFICATION_TYPE":"U","GP_ID":"227853116","EPHEMERIS_TYPE":"0","OBJECT_NAME":"STARLINK-1305","OBJECT_ID":"2020-019T","TLE_LINE2":"2 45377  53.0559  39.5375 0001085  87.2332 272.8781 15.06394834164780","TLE_LINE1":"1 45377U 20019T   23070.29613409  .00000189  00000-0  31592-4 0  9996","EPOCH":"2023-03-11T07:06:25.985376","REF_FRAME":"TEME","COUNTRY_CODE":"US","ECCENTRICITY":"0.00010850","OBJECT_TYPE":"PAYLOAD","INCLINATION":"53.0559","BSTAR":"0.00003159200000","LAUNCH_DATE":"2020-03-18","MEAN_MOTION":"15.06394834","PERIOD":"95.592","PERIAPSIS":"546.478","MEAN_MOTION_DDOT":"0.0000000000000","ARG_OF_PERICENTER":"87.2332","ELEMENT_SET_NO":"999","FILE":"3857581","MEAN_ANOMALY":"272.8781","APOAPSIS":"547.981","RCS_SIZE":"LARGE","DECAY_DATE":null,"MEAN_ELEMENT_THEORY":"SGP4","MEAN_MOTION_DOT":"0.00000189","NORAD_CAT_ID":"45377","TIME_SYSTEM":"UTC","SEMIMAJOR_AXIS":"6925.364","RA_OF_ASC_NODE":"39.5375"},{"RA_OF_ASC_NODE":"39.2910","MEAN_ELEMENT_THEORY":"SGP4","NORAD_CAT_ID":"45378","MEAN_MOTION_DOT":"0.00044255","TIME_SYSTEM":"UTC","SEMIMAJOR_AXIS":"6925.341","RCS_SIZE":"LARGE","DECAY_DATE":null,"ELEMENT_SET_NO":"999","ARG_OF_PERICENTER":"82.7899","MEAN_ANOMALY":"277.3187","FILE":"3857581","APOAPSIS":"547.795","PERIAPSIS":"546.616","MEAN_MOTION_DDOT":"0.0000000000000","LAUNCH_DATE":"2020-03-18","MEAN_MOTION":"15.06402557","PERIOD":"95.592","INCLINATION":"53.0546","BSTAR":"0.00297110000000","ECCENTRICITY":"0.00008510","OBJECT_TYPE":"PAYLOAD","REF_FRAME":"TEME","COUNTRY_CODE":"US","EPOCH":"2023-03-11T08:26:03.302304","TLE_LINE1":"1 45378U 20019U   23070.35142711  .00044255  00000-0  29711-2 0  9997","TLE_LINE2":"2 45378  53.0546  39.2910 0000851  82.7899 277.3187 15.06402557164790","GP_ID":"227854364","EPHEMERIS_TYPE":"0","OBJECT_NAME":"STARLINK-1310","OBJECT_ID":"2020-019U","CLASSIFICATION_TYPE":"U","SITE":"AFETR","CENTER_NAME":"EARTH","REV_AT_EPOCH":"16479"},{"GP_ID":"227854114","OBJECT_NAME":"STARLINK-1319","EPHEMERIS_TYPE":"0","OBJECT_ID":"2020-019V","CLASSIFICATION_TYPE":"U","SITE":"AFETR","CENTER_NAME":"EARTH","REV_AT_EPOCH":"16480","REF_FRAME":"TEME","COUNTRY_CODE":"US","EPOCH":"2023-03-11T10:06:54.311616","TLE_LINE1":"1 45379U 20019V   23070.42146194  .00035039  00000-0  23594-2 0  9998","TLE_LINE2":"2 45379  53.0559  38.9796 0001402  78.7229 281.3918 15.06402131164805","PERIAPSIS":"546.236","MEAN_MOTION_DDOT":"0.0000000000000","LAUNCH_DATE":"2020-03-18","MEAN_MOTION":"15.06402131","PERIOD":"95.592","BSTAR":"0.00235940000000","INCLINATION":"53.0559","ECCENTRICITY":"0.00014020","OBJECT_TYPE":"PAYLOAD","RA_OF_ASC_NODE":"38.9796","MEAN_ELEMENT_THEORY":"SGP4","TIME_SYSTEM":"UTC","MEAN_MOTION_DOT":"0.00035039","NORAD_CAT_ID":"45379","SEMIMAJOR_AXIS":"6925.342","RCS_SIZE":"LARGE","DECAY_DATE":null,"ELEMENT_SET_NO":"999","ARG_OF_PERICENTER":"78.7229","FILE":"3857581","MEAN_ANOMALY":"281.3918","APOAPSIS":"548.178"},{"OBJECT_NAME":"STARLINK-1207","EPHEMERIS_TYPE":"0","OBJECT_ID":"2020-019W","GP_ID":"227853367","CENTER_NAME":"EARTH","REV_AT_EPOCH":"16503","SITE":"AFETR","CLASSIFICATION_TYPE":"U","EPOCH":"2023-03-11T03:42:05.498784","COUNTRY_CODE":"US","REF_FRAME":"TEME","TLE_LINE2":"2 45380  53.0557  20.1803 0001228  74.9792 285.1333 15.06376313165037","TLE_LINE1":"1 45380U 20019W   23070.15423031 -.00001017  00000-0 -49425-4 0  9992","MEAN_MOTION":"15.06376313","PERIOD":"95.594","LAUNCH_DATE":"2020-03-18","PERIAPSIS":"546.436","MEAN_MOTION_DDOT":"0.0000000000000","ECCENTRICITY":"0.00012280","OBJECT_TYPE":"PAYLOAD","BSTAR":"-0.00004942500000","INCLINATION":"53.0557","MEAN_MOTION_DOT":"-0.00001017","TIME_SYSTEM":"UTC","NORAD_CAT_ID":"45380","SEMIMAJOR_AXIS":"6925.421","MEAN_ELEMENT_THEORY":"SGP4","RA_OF_ASC_NODE":"20.1803","FILE":"3857581","MEAN_ANOMALY":"285.1333","APOAPSIS":"548.137","ELEMENT_SET_NO":"999","ARG_OF_PERICENTER":"74.9792","RCS_SIZE":"LARGE","DECAY_DATE":null},{"MEAN_ELEMENT_THEORY":"SGP4","SEMIMAJOR_AXIS":"6925.389","MEAN_MOTION_DOT":"0.00003286","TIME_SYSTEM":"UTC","NORAD_CAT_ID":"45381","RA_OF_ASC_NODE":"20.1319","ELEMENT_SET_NO":"999","ARG_OF_PERICENTER":"76.1804","APOAPSIS":"548.242","FILE":"3857581","MEAN_ANOMALY":"283.9344","DECAY_DATE":null,"RCS_SIZE":"LARGE","LAUNCH_DATE":"2020-03-18","PERIOD":"95.593","MEAN_MOTION":"15.06386669","MEAN_MOTION_DDOT":"0.0000000000000","PERIAPSIS":"546.267","OBJECT_TYPE":"PAYLOAD","ECCENTRICITY":"0.00014260","INCLINATION":"53.0538","BSTAR":"0.00023950000000","EPOCH":"2023-03-11T03:58:00.644736","REF_FRAME":"TEME","COUNTRY_CODE":"US","TLE_LINE2":"2 45381  53.0538  20.1319 0001426  76.1804 283.9344 15.06386669165030","TLE_LINE1":"1 45381U 20019X   23070.16528524  .00003286  00000-0  23950-3 0  9999","GP_ID":"227853616","OBJECT_ID":"2020-019X","OBJECT_NAME":"STARLINK-1258","EPHEMERIS_TYPE":"0","SITE":"AFETR","REV_AT_EPOCH":"16503","CENTER_NAME":"EARTH","CLASSIFICATION_TYPE":"U"},{"LAUNCH_DATE":"2020-03-18","MEAN_MOTION":"15.16442175","PERIOD":"94.959","PERIAPSIS":"513.436","MEAN_MOTION_DDOT":"0.0000000000000","ECCENTRICITY":"0.00045980","OBJECT_TYPE":"PAYLOAD","INCLINATION":"53.0517","BSTAR":"0.00248970000000","MEAN_ELEMENT_THEORY":"SGP4","MEAN_MOTION_DOT":"0.00049039","NORAD_CAT_ID":"45382","TIME_SYSTEM":"UTC","SEMIMAJOR_AXIS":"6894.741","RA_OF_ASC_NODE":"11.9224","ELEMENT_SET_NO":"999","ARG_OF_PERICENTER":"118.8570","MEAN_ANOMALY":"241.2885","FILE":"3857847","APOAPSIS":"519.776","RCS_SIZE":"LARGE","DECAY_DATE":null,"GP_ID":"227887176","OBJECT_NAME":"STARLINK-1264","EPHEMERIS_TYPE":"0","OBJECT_ID":"2020-019Y","SITE":"AFETR","CENTER_NAME":"EARTH","REV_AT_EPOCH":"16503","CLASSIFICATION_TYPE":"U","EPOCH":"2023-03-11T20:32:39.098112","REF_FRAME":"TEME","COUNTRY_CODE":"US","TLE_LINE2":"2 45382  53.0517  11.9224 0004598 118.8570 241.2885 15.16442175165031","TLE_LINE1":"1 45382U 20019Y   23070.85600808  .00049039  00000-0  24897-2 0  9998"},{"EPOCH":"2023-03-11T03:47:22.874496","COUNTRY_CODE":"US","REF_FRAME":"TEME","TLE_LINE2":"2 45383  53.0555  20.1723 0001283 113.1723 246.9401 15.06395860165039","TLE_LINE1":"1 45383U 20019Z   23070.15790364 -.00000114  00000-0  11209-4 0  9996","OBJECT_ID":"2020-019Z","EPHEMERIS_TYPE":"0","OBJECT_NAME":"STARLINK-1266","GP_ID":"227854615","REV_AT_EPOCH":"16503","CENTER_NAME":"EARTH","SITE":"AFETR","CLASSIFICATION_TYPE":"U","SEMIMAJOR_AXIS":"6925.361","MEAN_MOTION_DOT":"-0.00000114","TIME_SYSTEM":"UTC","NORAD_CAT_ID":"45383","MEAN_ELEMENT_THEORY":"SGP4","RA_OF_ASC_NODE":"20.1723","APOAPSIS":"548.115","FILE":"3857581","MEAN_ANOMALY":"246.9401","ARG_OF_PERICENTER":"113.1723","ELEMENT_SET_NO":"999","DECAY_DATE":null,"RCS_SIZE":"LARGE","PERIOD":"95.592","MEAN_MOTION":"15.06395860","LAUNCH_DATE":"2020-03-18","MEAN_MOTION_DDOT":"0.0000000000000","PERIAPSIS":"546.338","OBJECT_TYPE":"PAYLOAD","ECCENTRICITY":"0.00012830","INCLINATION":"53.0555","BSTAR":"0.00001120900000"},{"COUNTRY_CODE":"US","REF_FRAME":"TEME","EPOCH":"2023-03-11T21:01:03.484992","TLE_LINE1":"1 45384U 20019AA  23070.87573478  .00004596  00000-0  32732-3 0  9991","TLE_LINE2":"2 45384  53.0550  16.9334 0001154  66.7118 293.3992 15.06391315165148","OBJECT_ID":"2020-019AA","OBJECT_NAME":"STARLINK-1267","EPHEMERIS_TYPE":"0","GP_ID":"227886175","CLASSIFICATION_TYPE":"U","REV_AT_EPOCH":"16514","CENTER_NAME":"EARTH","SITE":"AFETR","RA_OF_ASC_NODE":"16.9334","SEMIMAJOR_AXIS":"6925.375","NORAD_CAT_ID":"45384","MEAN_MOTION_DOT":"0.00004596","TIME_SYSTEM":"UTC","MEAN_ELEMENT_THEORY":"SGP4","DECAY_DATE":null,"RCS_SIZE":"LARGE","APOAPSIS":"548.039","FILE":"3857847","MEAN_ANOMALY":"293.3992","ELEMENT_SET_NO":"999","ARG_OF_PERICENTER":"66.7118","MEAN_MOTION_DDOT":"0.0000000000000","PERIAPSIS":"546.441","PERIOD":"95.593","MEAN_MOTION":"15.06391315","LAUNCH_DATE":"2020-03-18","BSTAR":"0.00032732000000","INCLINATION":"53.0550","OBJECT_TYPE":"PAYLOAD","ECCENTRICITY":"0.00011540"},{"APOAPSIS":"548.163","MEAN_ANOMALY":"239.2364","FILE":"3857581","ARG_OF_PERICENTER":"120.8759","ELEMENT_SET_NO":"999","DECAY_DATE":null,"RCS_SIZE":"LARGE","SEMIMAJOR_AXIS":"6925.354","TIME_SYSTEM":"UTC","MEAN_MOTION_DOT":"0.00005262","NORAD_CAT_ID":"45386","MEAN_ELEMENT_THEORY":"SGP4","RA_OF_ASC_NODE":"19.5962","OBJECT_TYPE":"PAYLOAD","ECCENTRICITY":"0.00013630","INCLINATION":"53.0558","BSTAR":"0.00037192000000","PERIOD":"95.592","MEAN_MOTION":"15.06398074","LAUNCH_DATE":"2020-03-18","MEAN_MOTION_DDOT":"0.0000000000000","PERIAPSIS":"546.276","TLE_LINE2":"2 45386  53.0558  19.5962 0001363 120.8759 239.2364 15.06398074165050","TLE_LINE1":"1 45386U 20019AC  23070.28323426  .00005262  00000-0  37192-3 0  9990","EPOCH":"2023-03-11T06:47:51.440064","COUNTRY_CODE":"US","REF_FRAME":"TEME","REV_AT_EPOCH":"16505","CENTER_NAME":"EARTH","SITE":"AFETR","CLASSIFICATION_TYPE":"U","OBJECT_ID":"2020-019AC","EPHEMERIS_TYPE":"0","OBJECT_NAME":"STARLINK-1272","GP_ID":"227853117"},{"EPOCH":"2023-03-11T04:08:37.272768","COUNTRY_CODE":"US","REF_FRAME":"TEME","TLE_LINE2":"2 45387  53.0558  20.0927 0001265  81.0427 279.0705 15.06391863165038","TLE_LINE1":"1 45387U 20019AD  23070.17265362 -.00000369  00000-0 -58945-5 0  9999","OBJECT_NAME":"STARLINK-1274","EPHEMERIS_TYPE":"0","OBJECT_ID":"2020-019AD","GP_ID":"227854365","CENTER_NAME":"EARTH","REV_AT_EPOCH":"16503","SITE":"AFETR","CLASSIFICATION_TYPE":"U","MEAN_MOTION_DOT":"-0.00000369","NORAD_CAT_ID":"45387","TIME_SYSTEM":"UTC","SEMIMAJOR_AXIS":"6925.373","MEAN_ELEMENT_THEORY":"SGP4","RA_OF_ASC_NODE":"20.0927","MEAN_ANOMALY":"279.0705","FILE":"3857581","APOAPSIS":"548.115","ELEMENT_SET_NO":"999","ARG_OF_PERICENTER":"81.0427","RCS_SIZE":"LARGE","DECAY_DATE":null,"MEAN_MOTION":"15.06391863","PERIOD":"95.593","LAUNCH_DATE":"2020-03-18","PERIAPSIS":"546.362","MEAN_MOTION_DDOT":"0.0000000000000","ECCENTRICITY":"0.00012650","OBJECT_TYPE":"PAYLOAD","INCLINATION":"53.0558","BSTAR":"-0.00000589450000"}];
